{
  "type": "FeatureCollection",
  "features": [
    {
      "type": "Feature",
      "properties": {
        "norad_id": 41019,
        "name": "GPS BIIF-11 (PRN 10)",
        "group": "gnss",
        "lat": -45.37166047411624,
        "lon": -3.261931643690878,
        "alt_km": 20093.110389411064,
        "timestamp": "2025-12-08T05:48:09.278153+00:00",
        "meta_object_name": "GPS BIIF-11 (PRN 10)",
        "meta_object_id": "2015-062A",
        "meta_epoch": "2025-12-07T07:48:52.356672",
        "meta_mean_motion": 2.00566963,
        "meta_eccentricity": 0.01106642,
        "meta_inclination": 56.8282,
        "meta_ra_of_asc_node": 38.2118,
        "meta_arg_of_pericenter": 229.7833,
        "meta_mean_anomaly": 129.2989,
        "meta_ephemeris_type": 0,
        "meta_classification_type": "U",
        "meta_norad_cat_id": 41019,
        "meta_element_set_no": 999,
        "meta_rev_at_epoch": 7398,
        "meta_bstar": 0,
        "meta_mean_motion_dot": -7.2e-07,
        "meta_mean_motion_ddot": 0,
        "tle_line1": "1 41019U 15062A   25341.32560598 -.00000072  00000+0  00000+0 0  9990",
        "tle_line2": "2 41019  56.8282  38.2118 0110664 229.7833 129.2989  2.00566963 73987"
      },
      "geometry": {
        "type": "Point",
        "coordinates": [
          -3.261931643690878,
          -45.37166047411624
        ]
      }
    },
    {
      "type": "Feature",
      "properties": {
        "norad_id": 41028,
        "name": "GSAT-15 (GAGAN/PRN 139)",
        "group": "gnss",
        "lat": -0.013111399405213116,
        "lon": -102.20106258910117,
        "alt_km": 35774.61391901807,
        "timestamp": "2025-12-08T05:48:09.278167+00:00",
        "meta_object_name": "GSAT-15 (GAGAN/PRN 139)",
        "meta_object_id": "2015-065A",
        "meta_epoch": "2025-12-07T22:25:38.600256",
        "meta_mean_motion": 1.00270809,
        "meta_eccentricity": 0.00029389,
        "meta_inclination": 0.0426,
        "meta_ra_of_asc_node": 96.8345,
        "meta_arg_of_pericenter": 142.0586,
        "meta_mean_anomaly": 267.9709,
        "meta_ephemeris_type": 0,
        "meta_classification_type": "U",
        "meta_norad_cat_id": 41028,
        "meta_element_set_no": 999,
        "meta_rev_at_epoch": 3688,
        "meta_bstar": 0,
        "meta_mean_motion_dot": -2.55e-06,
        "meta_mean_motion_ddot": 0,
        "tle_line1": "1 41028U 15065A   25341.93447454 -.00000255  00000+0  00000+0 0  9998",
        "tle_line2": "2 41028   0.0426  96.8345 0002938 142.0586 267.9709  1.00270809 36884"
      },
      "geometry": {
        "type": "Point",
        "coordinates": [
          -102.20106258910117,
          -0.013111399405213116
        ]
      }
    },
    {
      "type": "Feature",
      "properties": {
        "norad_id": 41174,
        "name": "GSAT0209 (GALILEO 12)",
        "group": "gnss",
        "lat": -55.177384431804526,
        "lon": 5.002567851951377,
        "alt_km": 23228.548672527206,
        "timestamp": "2025-12-08T05:48:09.278179+00:00",
        "meta_object_name": "GSAT0209 (GALILEO 12)",
        "meta_object_id": "2015-079A",
        "meta_epoch": "2025-12-01T22:43:10.411392",
        "meta_mean_motion": 1.70474306,
        "meta_eccentricity": 0.0002352,
        "meta_inclination": 55.7062,
        "meta_ra_of_asc_node": 106.6773,
        "meta_arg_of_pericenter": 357.4206,
        "meta_mean_anomaly": 2.5431,
        "meta_ephemeris_type": 0,
        "meta_classification_type": "U",
        "meta_norad_cat_id": 41174,
        "meta_element_set_no": 999,
        "meta_rev_at_epoch": 6141,
        "meta_bstar": 0,
        "meta_mean_motion_dot": 3.5e-07,
        "meta_mean_motion_ddot": 0,
        "tle_line1": "1 41174U 15079A   25335.94664828  .00000035  00000+0  00000+0 0  9990",
        "tle_line2": "2 41174  55.7062 106.6773 0002352 357.4206   2.5431  1.70474306 61412"
      },
      "geometry": {
        "type": "Point",
        "coordinates": [
          5.002567851951377,
          -55.177384431804526
        ]
      }
    },
    {
      "type": "Feature",
      "properties": {
        "norad_id": 41175,
        "name": "GSAT0208 (GALILEO 11)",
        "group": "gnss",
        "lat": 40.346785873897296,
        "lon": -108.8956102592684,
        "alt_km": 23220.30117980084,
        "timestamp": "2025-12-08T05:48:09.278192+00:00",
        "meta_object_name": "GSAT0208 (GALILEO 11)",
        "meta_object_id": "2015-079B",
        "meta_epoch": "2025-12-07T10:42:17.817120",
        "meta_mean_motion": 1.70474201,
        "meta_eccentricity": 0.00018539,
        "meta_inclination": 55.7081,
        "meta_ra_of_asc_node": 106.5234,
        "meta_arg_of_pericenter": 5.1909,
        "meta_mean_anomaly": 354.7678,
        "meta_ephemeris_type": 0,
        "meta_classification_type": "U",
        "meta_norad_cat_id": 41175,
        "meta_element_set_no": 999,
        "meta_rev_at_epoch": 6192,
        "meta_bstar": 0,
        "meta_mean_motion_dot": 8e-08,
        "meta_mean_motion_ddot": 0,
        "tle_line1": "1 41175U 15079B   25341.44603955  .00000008  00000+0  00000+0 0  9997",
        "tle_line2": "2 41175  55.7081 106.5234 0001853   5.1909 354.7678  1.70474201 61922"
      },
      "geometry": {
        "type": "Point",
        "coordinates": [
          -108.8956102592684,
          40.346785873897296
        ]
      }
    },
    {
      "type": "Feature",
      "properties": {
        "norad_id": 41241,
        "name": "IRNSS-1E",
        "group": "gnss",
        "lat": -17.505763880969013,
        "lon": -88.22798910213488,
        "alt_km": 35704.653211659526,
        "timestamp": "2025-12-08T05:48:09.278204+00:00",
        "meta_object_name": "IRNSS-1E",
        "meta_object_id": "2016-003A",
        "meta_epoch": "2025-12-07T15:52:32.094912",
        "meta_mean_motion": 1.00275984,
        "meta_eccentricity": 0.00218847,
        "meta_inclination": 32.8144,
        "meta_ra_of_asc_node": 62.5276,
        "meta_arg_of_pericenter": 186.9179,
        "meta_mean_anomaly": 177.1372,
        "meta_ephemeris_type": 0,
        "meta_classification_type": "U",
        "meta_norad_cat_id": 41241,
        "meta_element_set_no": 999,
        "meta_rev_at_epoch": 3616,
        "meta_bstar": 0,
        "meta_mean_motion_dot": -3.13e-06,
        "meta_mean_motion_ddot": 0,
        "tle_line1": "1 41241U 16003A   25341.66148258 -.00000313  00000+0  00000+0 0  9993",
        "tle_line2": "2 41241  32.8144  62.5276 0021884 186.9179 177.1372  1.00275984 36168"
      },
      "geometry": {
        "type": "Point",
        "coordinates": [
          -88.22798910213488,
          -17.505763880969013
        ]
      }
    },
    {
      "type": "Feature",
      "properties": {
        "norad_id": 41328,
        "name": "GPS BIIF-12 (PRN 32)",
        "group": "gnss",
        "lat": -46.10888119031344,
        "lon": -37.19427799336143,
        "alt_km": 19944.111024088383,
        "timestamp": "2025-12-08T05:48:09.278217+00:00",
        "meta_object_name": "GPS BIIF-12 (PRN 32)",
        "meta_object_id": "2016-007A",
        "meta_epoch": "2025-12-07T09:47:29.747616",
        "meta_mean_motion": 2.00560863,
        "meta_eccentricity": 0.0091895,
        "meta_inclination": 55.4032,
        "meta_ra_of_asc_node": 97.0687,
        "meta_arg_of_pericenter": 243.44,
        "meta_mean_anomaly": 115.5952,
        "meta_ephemeris_type": 0,
        "meta_classification_type": "U",
        "meta_norad_cat_id": 41328,
        "meta_element_set_no": 999,
        "meta_rev_at_epoch": 7199,
        "meta_bstar": 0,
        "meta_mean_motion_dot": -4e-08,
        "meta_mean_motion_ddot": 0,
        "tle_line1": "1 41328U 16007A   25341.40798319 -.00000004  00000+0  00000+0 0  9991",
        "tle_line2": "2 41328  55.4032  97.0687 0091895 243.4400 115.5952  2.00560863 71999"
      },
      "geometry": {
        "type": "Point",
        "coordinates": [
          -37.19427799336143,
          -46.10888119031344
        ]
      }
    },
    {
      "type": "Feature",
      "properties": {
        "norad_id": 41330,
        "name": "COSMOS 2514 (751)",
        "group": "gnss",
        "lat": -37.110406939809096,
        "lon": -60.98819593993086,
        "alt_km": 19139.11099669639,
        "timestamp": "2025-12-08T05:48:09.278263+00:00",
        "meta_object_name": "COSMOS 2514 (751)",
        "meta_object_id": "2016-008A",
        "meta_epoch": "2025-12-06T21:19:17.818752",
        "meta_mean_motion": 2.13102518,
        "meta_eccentricity": 0.00123323,
        "meta_inclination": 65.1372,
        "meta_ra_of_asc_node": 319.6044,
        "meta_arg_of_pericenter": 219.9906,
        "meta_mean_anomaly": 139.9121,
        "meta_ephemeris_type": 0,
        "meta_classification_type": "U",
        "meta_norad_cat_id": 41330,
        "meta_element_set_no": 999,
        "meta_rev_at_epoch": 7652,
        "meta_bstar": 0,
        "meta_mean_motion_dot": -4.9e-07,
        "meta_mean_motion_ddot": 0,
        "tle_line1": "1 41330U 16008A   25340.88840068 -.00000049  00000+0  00000+0 0  9994",
        "tle_line2": "2 41330  65.1372 319.6044 0012332 219.9906 139.9121  2.13102518 76520"
      },
      "geometry": {
        "type": "Point",
        "coordinates": [
          -60.98819593993086,
          -37.110406939809096
        ]
      }
    }
  ]
}